{"type": "FeatureCollection", "features": [{"type": "Feature", "geometry": {"type": "Point", "coordinates": [-58.395440789173364, -34.60267847932716]}, "properties": {"id": 1, "nombre": "Facultad Latinoamericana de Ciencias Sociales", "unidad_aca": "Rectorado", "sede": null, "direccion": "Ayacucho 551", "barrio": "Balvanera", "comuna": 3, "telefono": "4375-2435/5238-9339 (C)5238-9300", "web": "www.flacso.org.ar"}}, {"type": "Feature", "geometry": {"type": "Point", "coordinates": [-58.43574212174931, -34.57459125776815]}, "properties": {"id": 2, "nombre": "Instituto de Enseñanza Superior del Ejército", "unidad_aca": "Escuela Superior Técnica", "sede": "\"General de División Manuel Nicolás Savio\"", "direccion": "Cabildo Av. 15", "barrio": "Palermo", "comuna": 14, "telefono": "4779-3384/3302", "web": "www.iese.edu.ar"}}, {"type": "Feature", "geometry": {"type": "Point", "coordinates": [-58.4338256078276, -34.57213793362023]}, "properties": {"id": 3, "nombre": "Instituto de Enseñanza Superior del Ejército", "unidad_aca": "Escuela Superior de Guerra", "sede": "\"Teniente General Luís Maria Campos\"", "direccion": "Campos, Luis M. Av. 480", "barrio": "Palermo", "comuna": 14, "telefono": "4576-3692/93", "web": "www.escuelasuperiordeguerra.iese.edu"}}, {"type": "Feature", "geometry": {"type": "Point", "coordinates": [-58.36802261287482, -34.60333614770179]}, "properties": {"id": 4, "nombre": "Instituto Tecnológico de Buenos Aires", "unidad_aca": "Departamento de Desarrollo de Recursos - Departamento de Economía, Finanzas y Legales - Departamento de Ing. Electrónica y Electrotecnia - Departamento de Ing. En Informática - Departamento de Ing. Industrial - Departamento de Ing. Mecánica - Departa", "sede": null, "direccion": "Madero, Eduardo Av. 399", "barrio": "Puerto Madero", "comuna": 1, "telefono": "6393-4800", "web": "www.itba.edu.ar"}}, {"type": "Feature", "geometry": {"type": "Point", "coordinates": [-58.37033210946315, -34.599416484350236]}, "properties": {"id": 5, "nombre": "Instituto Universitario Aeronáutico", "unidad_aca": "Instituto Nacional de Derecho Aeronáutico y Espacial", "sede": null, "direccion": "Viamonte 153", "barrio": "San Nicolas", "comuna": 1, "telefono": "4514-4267", "web": null}}, {"type": "Feature", "geometry": {"type": "Point", "coordinates": [-58.37038520153323, -34.58429848979401]}, "properties": {"id": 6, "nombre": "Instituto Universitario Aeronáutico", "unidad_aca": "Escuela Superior de Guerra Aérea", "sede": null, "direccion": "Zanni Pedro Comodoro 250", "barrio": "Retiro", "comuna": 1, "telefono": "4317-6464", "web": null}}, {"type": "Feature", "geometry": {"type": "Point", "coordinates": [-58.385603821238725, -34.6134837776707]}, "properties": {"id": 7, "nombre": "Instituto Universitario Aeronáutico", "unidad_aca": "Unidad de Educación a Distancia en el Exterior", "sede": "Centro de Gestión en Buenos Aires", "direccion": "Belgrano Av. 1370, piso 12", "barrio": "Monserrat", "comuna": 1, "telefono": "4382-3834 // 4382-3670/4146/4017", "web": null}}, {"type": "Feature", "geometry": {"type": "Point", "coordinates": [-58.494680742817444, -34.55740721370954]}, "properties": {"id": 8, "nombre": "Instituto Universitario CEMIC", "unidad_aca": "Escuela de Medicina - Instituto de Investigaciones - Rectorado", "sede": null, "direccion": "Galvan 4102", "barrio": "Saavedra", "comuna": 12, "telefono": "4546-8290/91 (C)4546-8200 / 4546-8228", "web": "www.cemic.edu.ar"}}, {"type": "Feature", "geometry": {"type": "Point", "coordinates": [-58.39563458211244, -34.588621971534955]}, "properties": {"id": 9, "nombre": "Instituto Universitario de Ciencias de la Salud Fundación H.A. Barceló", "unidad_aca": "Facultad de Medicina - Rectorado", "sede": null, "direccion": "Las Heras General Av. 2191", "barrio": "Recoleta", "comuna": 2, "telefono": "4805-2607/ 4804-4723/ 4576-2350/1 y 2", "web": "www.barcelo.edu.ar"}}, {"type": "Feature", "geometry": {"type": "Point", "coordinates": [-58.37945339122107, -34.61409867911991]}, "properties": {"id": 10, "nombre": "Instituto Universitario de la Fundación ISALUD", "unidad_aca": "Facultad de Administración y Economía - Facultad de Alimentos y Nutrición - Facultad de Ciencias Sociales - Facultad de Salud - Rectorado", "sede": null, "direccion": "Republica Bolivariana De Venezuela 931", "barrio": "Monserrat", "comuna": 1, "telefono": "5239-4000", "web": "www.isalud.org"}}, {"type": "Feature", "geometry": {"type": "Point", "coordinates": [-58.41166447299968, -34.63951196927601]}, "properties": {"id": 11, "nombre": "Instituto Universitario de la Policía Federal Argentina", "unidad_aca": "Escuela de Enfermería Nuestra Señora de los Remedios - Escuela de Instrumentación Quirúrgica - Facultad de Ciencias Biomédicas", "sede": null, "direccion": "Uspallata 3400", "barrio": "Parque Patricios", "comuna": 4, "telefono": "4909-4100 // 4909-4121/4179", "web": "www.universidad-policial.edu.a"}}, {"type": "Feature", "geometry": {"type": "Point", "coordinates": [-58.4364030156678, -34.61955416479017]}, "properties": {"id": 12, "nombre": "Instituto Universitario de la Policía Federal Argentina", "unidad_aca": "Facultad de Ciencias Biomédicas - Facultad de Ciencias de la Criminalística - Facultad de Ciencias de la Seguridad - Facultad de Ciencias Jurídicas y Sociales - Rectorado", "sede": null, "direccion": "Rosario 532", "barrio": "Caballito", "comuna": 6, "telefono": "4903-7516/ 4902-4543/ 4902-4201/ 4901-9783", "web": "www.universidad-policial.edu.a"}}, {"type": "Feature", "geometry": {"type": "Point", "coordinates": [-58.403927443453235, -34.57361424960638]}, "properties": {"id": 13, "nombre": "Instituto Universitario de la Policía Federal Argentina", "unidad_aca": "Centro de Educación a Distancia Universitaria", "sede": null, "direccion": "Cavia 3378", "barrio": "Palermo", "comuna": 14, "telefono": "4809-6162/ 4809-6161", "web": "www.universidad-policial.edu.a"}}, {"type": "Feature", "geometry": {"type": "Point", "coordinates": [-58.436992374136835, -34.567986473179666]}, "properties": {"id": 14, "nombre": "Instituto Universitario de Salud Mental de la Asociación Psicoanalitica de Buenos Aires", "unidad_aca": "Rectorado", "sede": null, "direccion": "Maure 1850", "barrio": "Palermo", "comuna": 14, "telefono": "4775-7867/7985/4779-0512", "web": "www.iusam.edu.ar"}}, {"type": "Feature", "geometry": {"type": "Point", "coordinates": [-58.37187239884903, -34.60302417203327]}, "properties": {"id": 15, "nombre": "Instituto Universitario de Seguridad Marítima", "unidad_aca": "Rectorado", "sede": null, "direccion": "Corrientes Av. 345, Piso 12", "barrio": "San Nicolas", "comuna": 1, "telefono": "4576-7655/4576-7611/13/4576-7611", "web": null}}, {"type": "Feature", "geometry": {"type": "Point", "coordinates": [-58.39126611829887, -34.59962704913345]}, "properties": {"id": 16, "nombre": "Instituto Universitario Escuela Argentina de Negocios", "unidad_aca": "Rectorado", "sede": null, "direccion": "Cordoba Av. 1690", "barrio": "San Nicolas", "comuna": 1, "telefono": "5032-3991/3900", "web": "http://www.iuean.edu.ar/"}}, {"type": "Feature", "geometry": {"type": "Point", "coordinates": [-58.42680796180037, -34.607330852298546]}, "properties": {"id": 17, "nombre": "Instituto Universitario \"Escuela de Medicina del Hospital Italiano\"", "unidad_aca": "Rectorado", "sede": null, "direccion": "Potosi 4240", "barrio": "Almagro", "comuna": 5, "telefono": "4983-2624 [C]495-90200", "web": "www.hospitalitaliano.org.ar/es"}}, {"type": "Feature", "geometry": {"type": "Point", "coordinates": [-58.42307053438688, -34.58087851145939]}, "properties": {"id": 18, "nombre": "Instituto Universitario \"Escuela Superior de Economía y Administración de Empresas", "unidad_aca": "Departamento de Administración y Formación Empresarial - Departamento de Economía y Ciencias Sociales - Rectorado", "sede": null, "direccion": "Uriarte 2472", "barrio": "Palermo", "comuna": 14, "telefono": "4773-3735/4773-5825/4772-7243", "web": "www.eseade.edu.ar"}}, {"type": "Feature", "geometry": {"type": "Point", "coordinates": [-58.392511019810684, -34.61275616357428]}, "properties": {"id": 19, "nombre": "Instituto Universitario IDEA", "unidad_aca": "Rectorado", "sede": null, "direccion": "Moreno 1850, pisos 1º, 2º, 3º, 4º, 5º", "barrio": "Balvanera", "comuna": 3, "telefono": "5861-4307 (C)5861-4300", "web": "www.ideared.org"}}, {"type": "Feature", "geometry": {"type": "Point", "coordinates": [-58.457216329254464, -34.63071248594855]}, "properties": {"id": 20, "nombre": "Instituto Universitario ISEDET", "unidad_aca": "Facultad de Teología", "sede": null, "direccion": "Camacua 252", "barrio": "Flores", "comuna": 7, "telefono": "4632-5030/5039/4361-0882", "web": "www.isedet.edu.ar"}}, {"type": "Feature", "geometry": {"type": "Point", "coordinates": [-58.45716994423735, -34.63081261734273]}, "properties": {"id": 21, "nombre": "Instituto Universitario ISEDET", "unidad_aca": "Rectorado", "sede": null, "direccion": "Camacua 282", "barrio": "Flores", "comuna": 7, "telefono": "4632-5030/5039/4361-0882", "web": "www.isedet.edu.ar"}}, {"type": "Feature", "geometry": {"type": "Point", "coordinates": [-58.46369022406898, -34.54089570506927]}, "properties": {"id": 22, "nombre": "Instituto Universitario Naval", "unidad_aca": "Escuela de Guerra Naval", "sede": null, "direccion": "Del Libertador Av. 8071", "barrio": "Nuñez", "comuna": 13, "telefono": "4704-7725", "web": "www.inun.edu.ar"}}, {"type": "Feature", "geometry": {"type": "Point", "coordinates": [-58.460639298497256, -34.53889310588287]}, "properties": {"id": 23, "nombre": "Instituto Universitario Naval", "unidad_aca": "Escuela Nacional de Náutica", "sede": null, "direccion": "Rivadavia Martin, Comodoro 1231", "barrio": "Nuñez", "comuna": 13, "telefono": "4704-9570 /9546", "web": "www.inun.edu.ar"}}, {"type": "Feature", "geometry": {"type": "Point", "coordinates": [-58.37132440289732, -34.65136911287914]}, "properties": {"id": 24, "nombre": "Instituto Universitario Naval", "unidad_aca": "Escuela de Ciencias del Mar", "sede": null, "direccion": "Montes De Oca, Manuel Av. 2124", "barrio": "Barracas", "comuna": 4, "telefono": "4303-2299/4301-9809", "web": "www.inun.edu.ar   www.hidro.gov.ar"}}, {"type": "Feature", "geometry": {"type": "Point", "coordinates": [-58.36754362926427, -34.58755343676688]}, "properties": {"id": 25, "nombre": "Instituto Universitario Naval", "unidad_aca": "Rectorado", "sede": null, "direccion": "Py, Comodoro Av. 2055, Piso 10", "barrio": "Retiro", "comuna": 1, "telefono": "4317-2000", "web": "www.inun.edu.ar"}}, {"type": "Feature", "geometry": {"type": "Point", "coordinates": [-58.36590073166517, -34.61571856882201]}, "properties": {"id": 26, "nombre": "Pontificia Universidad Católica Argentina", "unidad_aca": "Facultad de Artes y Ciencias Musicales - Facultad de Ciencias Físicomatemáticas e Ingeniería - Facultad de Ciencias Médicas - Facultad de Derecho Canónico - Facultad de Filosofía y Letras", "sede": null, "direccion": "Moreau De Justo, Alicia Av. 1500, Edificio San Alberto Magno", "barrio": "Puerto Madero", "comuna": 1, "telefono": "4349-0200/0419/20", "web": "www.uca.edu.ar"}}, {"type": "Feature", "geometry": {"type": "Point", "coordinates": [-58.36620667256202, -34.61315309716365]}, "properties": {"id": 27, "nombre": "Pontificia Universidad Católica Argentina", "unidad_aca": "Rectorado", "sede": null, "direccion": "Moreau De Justo, Alicia Av. 1300, Edificio Santa María de los Buenos Aires", "barrio": "Puerto Madero", "comuna": 1, "telefono": "4349-0251/4349-0200/43380600", "web": "www.uca.edu.ar"}}, {"type": "Feature", "geometry": {"type": "Point", "coordinates": [-58.50829586202066, -34.593291295070436]}, "properties": {"id": 28, "nombre": "Pontificia Universidad Católica Argentina", "unidad_aca": "Facultad de Teología", "sede": null, "direccion": "Concordia 4422", "barrio": "Villa Devoto", "comuna": 11, "telefono": "4501-6428/6748", "web": "www.uca.edu.ar"}}, {"type": "Feature", "geometry": {"type": "Point", "coordinates": [-58.36604850225858, -34.61445785803402]}, "properties": {"id": 29, "nombre": "Pontificia Universidad Católica Argentina", "unidad_aca": "Facultad de Ciencias Sociales y Económicas - Facultad de Derecho - Facultad de Psicología y Psicopedagogía - Instituto de Ciencias Políticas y Relaciones Internacionales", "sede": null, "direccion": "Moreau De Justo, Alicia Av. 1400, Edificio Santo Tomás Moro", "barrio": "Puerto Madero", "comuna": 1, "telefono": "4349-0200", "web": "www.uca.edu.ar"}}, {"type": "Feature", "geometry": {"type": "Point", "coordinates": [-58.444582959093765, -34.57931134480373]}, "properties": {"id": 30, "nombre": "Pontificia Universidad Católica Argentina", "unidad_aca": "Facultad de Ciencias Agrarias", "sede": null, "direccion": "Freire, Ramon, Cap. Gral. 183", "barrio": "Colegiales", "comuna": 13, "telefono": "4552-2711/2721/2724", "web": "www.uca.edu.ar"}}, {"type": "Feature", "geometry": {"type": "Point", "coordinates": [-58.37966350063162, -34.62204319815122]}, "properties": {"id": 31, "nombre": "Universidad Abierta Interamericana", "unidad_aca": null, "sede": "Localización Centro", "direccion": "San Juan Av. 983", "barrio": "Constitucion", "comuna": 1, "telefono": "4300-2147", "web": "www.uai.edu.ar"}}, {"type": "Feature", "geometry": {"type": "Point", "coordinates": [-58.42558943710875, -34.6019675832976]}, "properties": {"id": 32, "nombre": "Universidad Abierta Interamericana", "unidad_aca": null, "sede": "Localización Almagro", "direccion": "Estado De Palestina 748", "barrio": "Almagro", "comuna": 5, "telefono": "4862-9179/4865-8796", "web": "www.uai.edu.ar"}}, {"type": "Feature", "geometry": {"type": "Point", "coordinates": [-58.375053663660125, -34.6367133655621]}, "properties": {"id": 33, "nombre": "Universidad Abierta Interamericana", "unidad_aca": null, "sede": "Localización Centro Anexo Cisneros", "direccion": "Montes De Oca, Manuel Av. 745", "barrio": "Barracas", "comuna": 4, "telefono": "4301-5240/5248/5398", "web": "www.uai.edu.ar"}}, {"type": "Feature", "geometry": {"type": "Point", "coordinates": [-58.45392427809631, -34.551508883273506]}, "properties": {"id": 34, "nombre": "Universidad Abierta Interamericana", "unidad_aca": null, "sede": "Localización Belgrano", "direccion": "Montañeses 2759", "barrio": "Belgrano", "comuna": 13, "telefono": "4788-2925/4787-9786/4788-2925", "web": "www.uai.edu.ar"}}, {"type": "Feature", "geometry": {"type": "Point", "coordinates": [-58.377216105500885, -34.62022207688387]}, "properties": {"id": 35, "nombre": "Universidad Abierta Interamericana", "unidad_aca": null, "sede": "Localización Centro Anexo (Piedras 1052)", "direccion": "Piedras 1052", "barrio": "San Telmo", "comuna": 1, "telefono": "4300-2147", "web": "www.uai.edu.ar"}}, {"type": "Feature", "geometry": {"type": "Point", "coordinates": [-58.37744389245774, -34.61675426266318]}, "properties": {"id": 36, "nombre": "Universidad Abierta Interamericana", "unidad_aca": null, "sede": "Localización Centro Anexo (Piedras 735)", "direccion": "Piedras 735", "barrio": "Monserrat", "comuna": 1, "telefono": "4300-2147", "web": "www.uai.edu.ar"}}, {"type": "Feature", "geometry": {"type": "Point", "coordinates": [-58.37630982703031, -34.609118499001035]}, "properties": {"id": 37, "nombre": "Universidad Abierta Interamericana", "unidad_aca": "Facultad de Arquitectura - Facultad de Ciencias Empresariales - Facultad de Comunicación - Facultad de Derecho y Ciencias Políticas - Facultad de Desarrollo e Inv. Educativos - Facultad de Medicina y Ciencias de la Salud - Facultad de Motricidad Humana", "sede": null, "direccion": "Chacabuco 90, 1º piso", "barrio": "Monserrat", "comuna": 1, "telefono": "4342-7788", "web": "www.uai.edu.ar"}}, {"type": "Feature", "geometry": {"type": "Point", "coordinates": [-58.38160313878042, -34.6170740349788]}, "properties": {"id": 38, "nombre": "Universidad Argentina de la Empresa", "unidad_aca": "Facultad de Ciencias Económicas - Facultad de Ciencias Jurídicas y Sociales - Facultad de Comunicación y Diseño - Facultad de Dirección de Empresas - Facultad de Ingeniería y Ciencias Exactas - Rectorado", "sede": null, "direccion": "Lima 717", "barrio": "Monserrat", "comuna": 1, "telefono": "4379-7601/7636/7601", "web": "www.uade.edu.ar"}}, {"type": "Feature", "geometry": {"type": "Point", "coordinates": [-58.37286414025586, -34.62142767235715]}, "properties": {"id": 39, "nombre": "Universidad Argentina John F. Kennedy", "unidad_aca": "Departamento de Arquitectura - Departamento de Construcciones y Estructuras - Departamento de Diseño - Departamento de Empresa", "sede": null, "direccion": "Bolivar 1163", "barrio": "San Telmo", "comuna": 1, "telefono": "4362-5766/4361-6506", "web": "www.kennedy.edu.ar"}}, {"type": "Feature", "geometry": {"type": "Point", "coordinates": [-58.37411578158641, -34.62144034076336]}, "properties": {"id": 40, "nombre": "Universidad Argentina John F. Kennedy", "unidad_aca": "Departamento de Penalistica", "sede": null, "direccion": "Peru 1156", "barrio": "San Telmo", "comuna": 1, "telefono": "4300-3816", "web": "www.kennedy.edu.ar"}}, {"type": "Feature", "geometry": {"type": "Point", "coordinates": [-58.37749793126693, -34.61565837736385]}, "properties": {"id": 41, "nombre": "Universidad Argentina John F. Kennedy", "unidad_aca": "Departamento de Periodismo y Comunicaciones", "sede": null, "direccion": "Piedras 645", "barrio": "Monserrat", "comuna": 1, "telefono": "4345-0175/8671", "web": "www.kennedy.edu.ar"}}, {"type": "Feature", "geometry": {"type": "Point", "coordinates": [-58.39355686690121, -34.60753308628522]}, "properties": {"id": 42, "nombre": "Universidad Argentina John F. Kennedy", "unidad_aca": "Departamento de Antropología - Departamento de Biología - Departamento de Ciencia Política - Departamento de Comercialización - Departamento de Computación - Departamento de Demografía y Turismo - Departamento de Historia - Departamento de Idiomas", "sede": null, "direccion": "Riobamba 152, 2º piso", "barrio": "Balvanera", "comuna": 3, "telefono": "4371-4009/ 4115-0706", "web": "www.kennedy.edu.ar"}}, {"type": "Feature", "geometry": {"type": "Point", "coordinates": [-58.379146185456875, -34.618475545198606]}, "properties": {"id": 43, "nombre": "Universidad Argentina John F. Kennedy", "unidad_aca": "Departamento de Deportes - Departamento de Filosofía - Departamento de Psicoanálisis - Departamento de Psicología Clínica", "sede": null, "direccion": "Estados Unidos 929", "barrio": "Constitucion", "comuna": 1, "telefono": "4300-1166", "web": "www.kennedy.edu.ar"}}, {"type": "Feature", "geometry": {"type": "Point", "coordinates": [-58.418272877381774, -34.61255855147659]}, "properties": {"id": 44, "nombre": "Universidad Argentina John F. Kennedy", "unidad_aca": "Departamento de Diseño de Sistemas - Departamento de Tecnologías Informáticas", "sede": null, "direccion": "Don Bosco 3729", "barrio": "Almagro", "comuna": 5, "telefono": "4982-2746/4958-4075", "web": "www.kennedy.edu.ar"}}, {"type": "Feature", "geometry": {"type": "Point", "coordinates": [-58.37090314263963, -34.619486632210474]}, "properties": {"id": 45, "nombre": "Universidad Argentina John F. Kennedy", "unidad_aca": "Departamento de Química General, Inorgánica y Orgánica", "sede": null, "direccion": "Calvo, Carlos 360", "barrio": "San Telmo", "comuna": 1, "telefono": "4932-9307", "web": "www.kennedy.edu.ar"}}, {"type": "Feature", "geometry": {"type": "Point", "coordinates": [-58.38650519056831, -34.60759314655144]}, "properties": {"id": 46, "nombre": "Universidad Argentina John F. Kennedy", "unidad_aca": "Departamento de Abogacía - Departamento de Arte - Departamento de Economía - Departamento de Literatura - Departamento de Matemática y Física - Departamento de Relaciones Públicas - Departamento de Trabajo - Rectorado", "sede": null, "direccion": "Mitre, Bartolome 1411, 1º Piso", "barrio": "San Nicolas", "comuna": 1, "telefono": "4371-6043 (C)4374-5211", "web": "www.kennedy.edu.ar"}}, {"type": "Feature", "geometry": {"type": "Point", "coordinates": [-58.385824897292295, -34.61842824248192]}, "properties": {"id": 47, "nombre": "Universidad Argentina John F. Kennedy", "unidad_aca": "Departamento de Estudiantes", "sede": null, "direccion": "San Jose 868", "barrio": "Constitucion", "comuna": 1, "telefono": "4383-5371/ 4382-4259", "web": "www.kennedy.edu.ar"}}, {"type": "Feature", "geometry": {"type": "Point", "coordinates": [-58.44003792845176, -34.61673208085601]}, "properties": {"id": 48, "nombre": "Universidad Argentina John F. Kennedy", "unidad_aca": "Escuela de Odontología", "sede": null, "direccion": "Parral 221", "barrio": "Caballito", "comuna": 6, "telefono": "4901-1079/1935", "web": "www.kennedy.edu.ar"}}, {"type": "Feature", "geometry": {"type": "Point", "coordinates": [-58.36734344341167, -34.62396859969306]}, "properties": {"id": 49, "nombre": "Universidad Austral", "unidad_aca": "Escuela y Laboratorio Ambiental - Facultad de Ciencias para la Familia - Facultad de Comunicación - Facultad de Derecho - Facultad de Ingeniería - Inglés - Rectorado", "sede": null, "direccion": "Garay, Juan De Av. 125", "barrio": "San Telmo", "comuna": 1, "telefono": "5921-8000", "web": "www.austral.edu.ar"}}, {"type": "Feature", "geometry": {"type": "Point", "coordinates": [-58.396997118229805, -34.60309255597987]}, "properties": {"id": 50, "nombre": "Universidad CAECE", "unidad_aca": "Departamento de Administración - Departamento de Ciencias Biológicas - Departamento de Ciencias Pedagógicas - Departamento de Computación - Departamento de Humanidades - Rectorado", "sede": null, "direccion": "Junin 516", "barrio": "Balvanera", "comuna": 3, "telefono": "5252-2811 (C)52522800", "web": "www.caece.edu.ar"}}, {"type": "Feature", "geometry": {"type": "Point", "coordinates": [-58.3787354777531, -34.60894479296182]}, "properties": {"id": 51, "nombre": "Universidad CAECE", "unidad_aca": "Departamento de Matemáticas - Departamento de Sistemas - Posgrado", "sede": null, "direccion": "De Mayo Av. 866", "barrio": "Monserrat", "comuna": 1, "telefono": "5217-7878", "web": "www.caece.edu.ar"}}, {"type": "Feature", "geometry": {"type": "Point", "coordinates": [-58.374555473558665, -34.6056532696988]}, "properties": {"id": 52, "nombre": "Universidad CAECE", "unidad_aca": "Escuela de Administración y Negocios", "sede": null, "direccion": "Peron, Juan Domingo, Tte. General 555, 1º piso", "barrio": "San Nicolas", "comuna": 1, "telefono": "4393-0014/4328-5226", "web": "www.caece.edu.ar"}}, {"type": "Feature", "geometry": {"type": "Point", "coordinates": [-58.40024148453003, -34.592521284681766]}, "properties": {"id": 53, "nombre": "Universidad Católica de La Plata", "unidad_aca": null, "sede": "Sede Buenos Aires", "direccion": "Larrea 1254", "barrio": "Recoleta", "comuna": 2, "telefono": "4826-7026", "web": null}}, {"type": "Feature", "geometry": {"type": "Point", "coordinates": [-58.36954923769111, -34.61426843669815]}, "properties": {"id": 54, "nombre": "Universidad Católica de Salta", "unidad_aca": null, "sede": "Subsede Académica Buenos Aires", "direccion": "Paseo Colon Av. 533, piso 8º", "barrio": "Monserrat", "comuna": 1, "telefono": "5169-3324/93316", "web": null}}, {"type": "Feature", "geometry": {"type": "Point", "coordinates": [-58.44379034883942, -34.56425702052904]}, "properties": {"id": 55, "nombre": "Universidad de Belgrano", "unidad_aca": "Estudios para Graduados - Facultad de Arquitectura y Urbanismo - Facultad de Ciencias Económicas - Facultad de Derecho y Ciencias Sociales - Facultad de Humanidades - Facultad de Lenguas y Estudios Extranjeros - Rectorado", "sede": null, "direccion": "Zabala 1837", "barrio": "Belgrano", "comuna": 13, "telefono": "4788-5400", "web": "www.ub.edu.ar"}}, {"type": "Feature", "geometry": {"type": "Point", "coordinates": [-58.38913520579369, -34.59720393372434]}, "properties": {"id": 56, "nombre": "Universidad de Belgrano", "unidad_aca": "Escuela de Economía y Negocios Internacionales - Posgrado de Derecho", "sede": null, "direccion": "Alvear, Marcelo T. De 1560", "barrio": "Recoleta", "comuna": 2, "telefono": "4812-6460 / 9680", "web": "www.ub.edu.ar"}}, {"type": "Feature", "geometry": {"type": "Point", "coordinates": [-58.44269588624576, -34.5655045109766]}, "properties": {"id": 57, "nombre": "Universidad de Belgrano", "unidad_aca": "Facultad de Ciencias de la Salud - Facultad de Ciencias Exactas y Naturales - Facultad de Ingeniería", "sede": null, "direccion": "Villanueva 1324", "barrio": "Palermo", "comuna": 14, "telefono": "4511-4700 / 4701 / 4735 / 4736", "web": "www.ub.edu.ar"}}, {"type": "Feature", "geometry": {"type": "Point", "coordinates": [-58.37369102921376, -34.60208911398834]}, "properties": {"id": 58, "nombre": "Universidad de Belgrano", "unidad_aca": "Departamento de Posgrado y Educación Continua", "sede": null, "direccion": "Lavalle 485", "barrio": "San Nicolas", "comuna": 1, "telefono": "4393-5588/8459/8491", "web": "www.ub.edu.ar"}}, {"type": "Feature", "geometry": {"type": "Point", "coordinates": [-58.44103258824885, -34.5658980921342]}, "properties": {"id": 59, "nombre": "Universidad de Belgrano", "unidad_aca": "Facultad de Ciencias Agrarias - Facultad de Estudios a Distancia y Educación Virtual - Facultad de Tecnología Informática", "sede": null, "direccion": "Lacroze, Federico Av. 1947 / Lacroze, Federico Av. 1955", "barrio": "Palermo", "comuna": 14, "telefono": "4511-4740/4576-3903/4511-4711", "web": "www.ub.edu.ar"}}, {"type": "Feature", "geometry": {"type": "Point", "coordinates": [-58.39123042033842, -34.59284586477624]}, "properties": {"id": 60, "nombre": "Universidad de Bologna", "unidad_aca": "Rectorado", "sede": null, "direccion": "Rodriguez Peña 1464", "barrio": "Recoleta", "comuna": 2, "telefono": "4878-2900", "web": "www.unibo.edu.ar"}}, {"type": "Feature", "geometry": {"type": "Point", "coordinates": [-58.41236988961251, -34.61223853634902]}, "properties": {"id": 61, "nombre": "Universidad de Buenos Aires", "unidad_aca": "Facultad de Psicología", "sede": null, "direccion": "Yrigoyen, Hipolito 3238 / Yrigoyen, Hipolito 3246", "barrio": "Balvanera", "comuna": 3, "telefono": "4931-9956/4957-5877 (R) 4931-6900", "web": "www.uba.ar   www.psi.uba.ar"}}, {"type": "Feature", "geometry": {"type": "Point", "coordinates": [-58.397928893581536, -34.59982462927396]}, "properties": {"id": 62, "nombre": "Universidad de Buenos Aires", "unidad_aca": "Facultad de Ciencias Económicas", "sede": null, "direccion": "Cordoba Av. 2122", "barrio": "Balvanera", "comuna": 3, "telefono": "4370-6159/4/4448/4374-1155", "web": "www.uba.ar   www.econ.uba.ar"}}, {"type": "Feature", "geometry": {"type": "Point", "coordinates": [-58.47762060069653, -34.59615823329081]}, "properties": {"id": 63, "nombre": "Universidad de Buenos Aires", "unidad_aca": "Facultad de Ciencias Veterinarias", "sede": null, "direccion": "Chorroarin Av. 280", "barrio": "Agronomia", "comuna": 15, "telefono": "4524-8400(R)4524-8402/4514-8952", "web": "www.uba.ar   www.fvet.uba.ar"}}, {"type": "Feature", "geometry": {"type": "Point", "coordinates": [-58.374042621753006, -34.64102453422791]}, "properties": {"id": 64, "nombre": "Universidad de Buenos Aires", "unidad_aca": null, "sede": "Sede - Rector José Luis Romero (\"Montes de Oca\")", "direccion": "Montes De Oca, Manuel Av. 1120", "barrio": "Barracas", "comuna": 4, "telefono": "4302-8589", "web": "www.uba.ar"}}, {"type": "Feature", "geometry": {"type": "Point", "coordinates": [-58.3923729479841, -34.583291167211]}, "properties": {"id": 65, "nombre": "Universidad de Buenos Aires", "unidad_aca": "Facultad de Derecho", "sede": null, "direccion": "Figueroa Alcorta, Pres. Av. 2263", "barrio": "Recoleta", "comuna": 2, "telefono": "4809-5697/5600/5696/3190", "web": "www.uba.ar   www.derecho.uba ar"}}, {"type": "Feature", "geometry": {"type": "Point", "coordinates": [-58.48236258288056, -34.59801807629182]}, "properties": {"id": 66, "nombre": "Universidad de Buenos Aires", "unidad_aca": "Facultad de Agronomía", "sede": null, "direccion": "San Martin Av. 4453", "barrio": "Agronomia", "comuna": 15, "telefono": "4514-8732 (C)4524-8000", "web": "www.uba.ar   www.agro.uba.ar"}}, {"type": "Feature", "geometry": {"type": "Point", "coordinates": [-58.48236258288056, -34.59801807629182]}, "properties": {"id": 67, "nombre": "Universidad de Buenos Aires", "unidad_aca": null, "sede": "Centro Universitario Regional Paternal", "direccion": "San Martin Av. 4453", "barrio": "Agronomia", "comuna": 15, "telefono": "4514-8980", "web": "www.uba.ar"}}, {"type": "Feature", "geometry": {"type": "Point", "coordinates": [-58.464974159539196, -34.67907004644322]}, "properties": {"id": 68, "nombre": "Universidad de Buenos Aires", "unidad_aca": "Ciclo Básico Común", "sede": "Sede \"Villa Lugano\"", "direccion": "Fernandez De La Cruz, F., Gral. Av. 5430", "barrio": "Villa Lugano", "comuna": 8, "telefono": null, "web": "www.uba.ar"}}, {"type": "Feature", "geometry": {"type": "Point", "coordinates": [-58.43950208815731, -34.54470349233196]}, "properties": {"id": 69, "nombre": "Universidad de Buenos Aires", "unidad_aca": "Ciclo Básico Común", "sede": null, "direccion": "Sendero Complejo Ciudad Universitaria (Sin Nombre Oficial) y Complejo Ciudad Universitaria (Sin Nombre Oficial), Ciudad Universitaria - Pabellón  I", "barrio": "Belgrano", "comuna": 13, "telefono": "4789 - 6000", "web": "www.uba.ar   www.cbc.uba.ar"}}, {"type": "Feature", "geometry": {"type": "Point", "coordinates": [-58.41862501834394, -34.60732432037212]}, "properties": {"id": 70, "nombre": "Universidad de Buenos Aires", "unidad_aca": "Facultad de Psicología", "sede": "Sede Bulnes", "direccion": "Bulnes 295", "barrio": "Almagro", "comuna": 5, "telefono": null, "web": "www.uba.ar   www.psi.uba.ar"}}, {"type": "Feature", "geometry": {"type": "Point", "coordinates": [-58.4428403682179, -34.54227772160852]}, "properties": {"id": 71, "nombre": "Universidad de Buenos Aires", "unidad_aca": "Facultad de Ciencias Exactas y Naturales", "sede": null, "direccion": "Sendero Complejo Ciudad Universitaria (Sin Nombre Oficial) y Complejo Ciudad Universitaria (Sin Nombre Oficial), Ciudad Universitaria - Pabellón II", "barrio": "Belgrano", "comuna": 13, "telefono": "4576-3332/3/3300/09", "web": "www.uba.ar   www.fcen.uba.ar"}}, {"type": "Feature", "geometry": {"type": "Point", "coordinates": [-58.44419497148306, -34.54165358814785]}, "properties": {"id": 72, "nombre": "Universidad de Buenos Aires", "unidad_aca": "Facultad de Arquitectura, Diseño y Urbanismo", "sede": null, "direccion": "Sendero Complejo Ciudad Universitaria (Sin Nombre Oficial) y Complejo Ciudad Universitaria (Sin Nombre Oficial), Ciudad Universitaria - Pabellón III", "barrio": "Belgrano", "comuna": 13, "telefono": "4789-6201/4789-6210   (R)4789-6200", "web": "www.uba.ar   www.fadu.uba.ar"}}, {"type": "Feature", "geometry": {"type": "Point", "coordinates": [-58.40876132475652, -34.61983026606989]}, "properties": {"id": 73, "nombre": "Universidad de Buenos Aires", "unidad_aca": "Facultad de Psicología", "sede": "Sede Independencia", "direccion": "Independencia Av. 3065", "barrio": "Balvanera", "comuna": 3, "telefono": null, "web": "www.uba.ar   www.psi.uba.ar"}}, {"type": "Feature", "geometry": {"type": "Point", "coordinates": [-58.39622546615327, -34.58837476665079]}, "properties": {"id": 74, "nombre": "Universidad de Buenos Aires", "unidad_aca": "Facultad de Ingeniería", "sede": "Sede Las Heras", "direccion": "Las Heras General Av. 2216", "barrio": "Recoleta", "comuna": 2, "telefono": "4514-3013", "web": "www.uba.ar   www.ingenieria.uba.ar"}}, {"type": "Feature", "geometry": {"type": "Point", "coordinates": [-58.384403255648216, -34.62024205982317]}, "properties": {"id": 75, "nombre": "Universidad de Buenos Aires", "unidad_aca": "Facultad de Ciencias Sociales", "sede": "Sede Constitución", "direccion": "Santiago Del Estero 1029", "barrio": "Constitucion", "comuna": 1, "telefono": "4305- 6087/6168", "web": "www.uba.ar   www.sociales.uba.ar"}}, {"type": "Feature", "geometry": {"type": "Point", "coordinates": [-58.51237195016059, -34.5973480648669]}, "properties": {"id": 76, "nombre": "Universidad de Buenos Aires", "unidad_aca": null, "sede": "Sede \"Devoto\"", "direccion": "Habana 3870", "barrio": "Villa Devoto", "comuna": 11, "telefono": "4580-2825/2826", "web": "www.uba.ar"}}, {"type": "Feature", "geometry": {"type": "Point", "coordinates": [-58.47843692328924, -34.56763405829667]}, "properties": {"id": 77, "nombre": "Universidad de Buenos Aires", "unidad_aca": null, "sede": "Sede \"Doctor Leónidas Anastasi\" (Drago)", "direccion": "Holmberg 2614", "barrio": "Villa Urquiza", "comuna": 12, "telefono": "4576-9852 al 55", "web": "www.uba.ar"}}, {"type": "Feature", "geometry": {"type": "Point", "coordinates": [-58.43234005033567, -34.605907356082064]}, "properties": {"id": 78, "nombre": "Universidad de Buenos Aires", "unidad_aca": null, "sede": "Sede Dr. Ramos Mejía (CBC)", "direccion": "Ramos Mejia 841", "barrio": "Caballito", "comuna": 6, "telefono": null, "web": "www.uba.ar"}}, {"type": "Feature", "geometry": {"type": "Point", "coordinates": [-58.397449200815956, -34.59785092053519]}, "properties": {"id": 79, "nombre": "Universidad de Buenos Aires", "unidad_aca": "Facultad de Farmacia y Bioquímica", "sede": null, "direccion": "Junin 954", "barrio": "Recoleta", "comuna": 2, "telefono": "4964-8222/4508-3644/4964-8224/8200", "web": "www.uba.ar   www.ffyb.uba.ar"}}, {"type": "Feature", "geometry": {"type": "Point", "coordinates": [-58.398067186624004, -34.59719213692]}, "properties": {"id": 80, "nombre": "Universidad de Buenos Aires", "unidad_aca": "Facultad de Odontología", "sede": null, "direccion": "Alvear, Marcelo T. De 2142", "barrio": "Recoleta", "comuna": 2, "telefono": "4508-3956/4964-1238/1239 (R)4964-1200", "web": "www.uba.ar   www.odon.uba.ar"}}, {"type": "Feature", "geometry": {"type": "Point", "coordinates": [-58.39955460173145, -34.59694924535013]}, "properties": {"id": 81, "nombre": "Universidad de Buenos Aires", "unidad_aca": "Facultad de Ciencias Sociales", "sede": null, "direccion": "Alvear, Marcelo T. De 2230", "barrio": "Recoleta", "comuna": 2, "telefono": "4508-3813/3814 /3800/3804/3805/3806/3807", "web": "www.uba.ar   www.fsoc.uba.ar"}}, {"type": "Feature", "geometry": {"type": "Point", "coordinates": [-58.39826035025714, -34.59841824859314]}, "properties": {"id": 82, "nombre": "Universidad de Buenos Aires", "unidad_aca": "Facultad de Medicina", "sede": null, "direccion": "Paraguay 2155", "barrio": "Recoleta", "comuna": 2, "telefono": "5950-9501/02/03 (C)9500/8000", "web": "www.uba.ar   www.fmed.uba.ar"}}, {"type": "Feature", "geometry": {"type": "Point", "coordinates": [-58.36875398857824, -34.617777761055365]}, "properties": {"id": 83, "nombre": "Universidad de Buenos Aires", "unidad_aca": "Facultad de Ingeniería", "sede": null, "direccion": "Paseo Colon Av. 850", "barrio": "San Telmo", "comuna": 1, "telefono": "4331-0833/4342-6272/2659 (R)4343-0891 (C)0", "web": "www.uba.ar   www.fi.uba.ar"}}, {"type": "Feature", "geometry": {"type": "Point", "coordinates": [-58.44664709566708, -34.62826348009255]}, "properties": {"id": 84, "nombre": "Universidad de Buenos Aires", "unidad_aca": "Facultad de Filosofía y Letras", "sede": null, "direccion": "Puan 470", "barrio": "Caballito", "comuna": 6, "telefono": "4432-9608/0606", "web": "www.uba.ar   www.filo.uba.ar"}}, {"type": "Feature", "geometry": {"type": "Point", "coordinates": [-58.41041903048634, -34.600569587559484]}, "properties": {"id": 85, "nombre": "Universidad de Buenos Aires", "unidad_aca": null, "sede": "Sede - \"Tucumán\"(ex \"Uriburu\")", "direccion": "Tucuman 3177", "barrio": "Balvanera", "comuna": 3, "telefono": "4508-3977", "web": "www.uba.ar"}}, {"type": "Feature", "geometry": {"type": "Point", "coordinates": [-58.373203995002385, -34.59974793459724]}, "properties": {"id": 86, "nombre": "Universidad de Buenos Aires", "unidad_aca": "Rectorado", "sede": null, "direccion": "Reconquista 694 / Viamonte 430 / Viamonte 444", "barrio": "San Nicolas", "comuna": 1, "telefono": "4511-8153 (C)4510-1100", "web": "www.uba.ar"}}, {"type": "Feature", "geometry": {"type": "Point", "coordinates": [-58.387600517263294, -34.598290181311995]}, "properties": {"id": 87, "nombre": "Universidad de Ciencias Empresariales y Sociales", "unidad_aca": "Facultad de Ciencias Económicas", "sede": null, "direccion": "Paraguay 1457, 3º piso", "barrio": "Recoleta", "comuna": 2, "telefono": "4815-3290", "web": "www.uces.edu.ar"}}, {"type": "Feature", "geometry": {"type": "Point", "coordinates": [-58.38711402523791, -34.59825778761145]}, "properties": {"id": 88, "nombre": "Universidad de Ciencias Empresariales y Sociales", "unidad_aca": "Facultad de Ciencias de la Comunicación", "sede": null, "direccion": "Paraguay 1401", "barrio": "Recoleta", "comuna": 2, "telefono": "4815-3290", "web": "www.uces.edu.ar"}}, {"type": "Feature", "geometry": {"type": "Point", "coordinates": [-58.384671099933556, -34.59809118655968]}, "properties": {"id": 89, "nombre": "Universidad de Ciencias Empresariales y Sociales", "unidad_aca": "Facultad de Ciencias de la Salud - Rectorado", "sede": null, "direccion": "Paraguay 1237", "barrio": "Retiro", "comuna": 1, "telefono": "4815-3290/494/495", "web": "www.uces.edu.ar"}}, {"type": "Feature", "geometry": {"type": "Point", "coordinates": [-58.38613193591176, -34.598251668891216]}, "properties": {"id": 90, "nombre": "Universidad de Ciencias Empresariales y Sociales", "unidad_aca": "Departamento de Posgrados", "sede": null, "direccion": "Paraguay 1338, Piso 11", "barrio": "Retiro", "comuna": 1, "telefono": "4815-3290/ 491", "web": "www.uces.edu.ar"}}, {"type": "Feature", "geometry": {"type": "Point", "coordinates": [-58.38772165213852, -34.59837158860944]}, "properties": {"id": 91, "nombre": "Universidad de Ciencias Empresariales y Sociales", "unidad_aca": "Facultad de Ciencias Jurídicas y Sociales", "sede": null, "direccion": "Paraguay 1462, 1º piso", "barrio": "Recoleta", "comuna": 2, "telefono": "4815-3290", "web": "www.uces.edu.ar"}}, {"type": "Feature", "geometry": {"type": "Point", "coordinates": [-58.38589478988269, -34.59823440045184]}, "properties": {"id": 92, "nombre": "Universidad de Ciencias Empresariales y Sociales", "unidad_aca": "Facultad de Ciencias Empresariales", "sede": null, "direccion": "Paraguay 1318", "barrio": "Retiro", "comuna": 1, "telefono": "4815-3290", "web": "www.uces.edu.ar"}}, {"type": "Feature", "geometry": {"type": "Point", "coordinates": [-58.47063906365035, -34.62872001489921]}, "properties": {"id": 93, "nombre": "Universidad de Flores", "unidad_aca": "Facultad de Actividad Física y Deporte - Facultad de Administración - Facultad de Ingeniería - Rectorado", "sede": null, "direccion": "Nazca Av. 274", "barrio": "Flores", "comuna": 7, "telefono": "4611-4800/4613-3636", "web": "www.uflo.edu.ar"}}, {"type": "Feature", "geometry": {"type": "Point", "coordinates": [-58.46280481154296, -34.63249865706519]}, "properties": {"id": 94, "nombre": "Universidad de Flores", "unidad_aca": "Facultad de Derecho - Facultad de Planeamiento Socioambiental - Facultad de Psicología", "sede": null, "direccion": "Pedernera 275", "barrio": "Flores", "comuna": 7, "telefono": "4637-4500", "web": "www.uflo.edu.ar"}}, {"type": "Feature", "geometry": {"type": "Point", "coordinates": [-58.398416887729084, -34.6097058458462]}, "properties": {"id": 95, "nombre": "Universidad de la Marina Mercante", "unidad_aca": "Facultad de Administración y Economía - Facultad de Humanidades y Ciencias Sociales - Facultad de Ingeniería - Rectorado", "sede": null, "direccion": "Rivadavia Av. 2258", "barrio": "Balvanera", "comuna": 3, "telefono": "4953-9000/4952-4700/4440/6767", "web": "www.udemm.edu.ar"}}, {"type": "Feature", "geometry": {"type": "Point", "coordinates": [-58.39226796169468, -34.60605288226946]}, "properties": {"id": 96, "nombre": "Universidad de Morón", "unidad_aca": "Instituto Argentino de Seguridad", "sede": null, "direccion": "Callao Av. 262, 1º piso", "barrio": "Balvanera", "comuna": 3, "telefono": "4375-0104", "web": null}}, {"type": "Feature", "geometry": {"type": "Point", "coordinates": [-58.398843183840896, -34.59666712733562]}, "properties": {"id": 97, "nombre": "Universidad de Morón", "unidad_aca": null, "sede": "Anexo Académico Barrio Norte", "direccion": "Uriburu Jose E., Pres. 1022 / Uriburu Jose E., Pres. 1045", "barrio": "Recoleta", "comuna": 2, "telefono": "4821-2616/4822-6824", "web": null}}, {"type": "Feature", "geometry": {"type": "Point", "coordinates": [-58.38619186566641, -34.61159041345217]}, "properties": {"id": 98, "nombre": "Universidad de Morón", "unidad_aca": "IAETES (Instituto Argentino de Estudios Técnicos Económicos y Sociales)", "sede": null, "direccion": "San Jose 225, 1º piso / San Jose 243, 1º piso", "barrio": "Monserrat", "comuna": 1, "telefono": "4381-3358", "web": null}}, {"type": "Feature", "geometry": {"type": "Point", "coordinates": [-58.48595505490286, -34.57451979542834]}, "properties": {"id": 99, "nombre": "Universidad de Morón", "unidad_aca": null, "sede": "Anexo Académico Villa Urquiza", "direccion": "Triunvirato Av. 4671", "barrio": "Villa Urquiza", "comuna": 12, "telefono": "4521-3500", "web": null}}, {"type": "Feature", "geometry": {"type": "Point", "coordinates": [-58.37799141433753, -34.6044079385044]}, "properties": {"id": 100, "nombre": "Universidad de Morón", "unidad_aca": "Escuela Argentina de Negocios", "sede": null, "direccion": "Esmeralda 321", "barrio": "San Nicolas", "comuna": 1, "telefono": "4326-4860", "web": null}}, {"type": "Feature", "geometry": {"type": "Point", "coordinates": [-58.45447955293188, -34.61370700454072]}, "properties": {"id": 101, "nombre": "Universidad de Morón", "unidad_aca": "Gestión Hotelera", "sede": "Anexo Caballito", "direccion": "Oroño, Nicasio 942", "barrio": "Caballito", "comuna": 6, "telefono": "4581-8001", "web": null}}, {"type": "Feature", "geometry": {"type": "Point", "coordinates": [-58.37757713046635, -34.607062230198785]}, "properties": {"id": 102, "nombre": "Universidad de Morón", "unidad_aca": "Cámara Inmobiliaria Argentina", "sede": null, "direccion": "Mitre, Bartolome 784, 1º piso", "barrio": "San Nicolas", "comuna": 1, "telefono": "5031-3333", "web": null}}, {"type": "Feature", "geometry": {"type": "Point", "coordinates": [-58.40706581499163, -34.59910159657594]}, "properties": {"id": 103, "nombre": "Universidad de Palermo", "unidad_aca": "Facultad de Arquitectura", "sede": null, "direccion": "Jaures, Jean 932", "barrio": "Balvanera", "comuna": 3, "telefono": "4962-4647/5199 -4500", "web": "www.palermo.edu"}}, {"type": "Feature", "geometry": {"type": "Point", "coordinates": [-58.41472330952374, -34.59467620122001]}, "properties": {"id": 104, "nombre": "Universidad de Palermo", "unidad_aca": "Cátedra Unesco en Educación Superior - Facultad de Ingeniería", "sede": null, "direccion": "Bravo, Mario 1302", "barrio": "Palermo", "comuna": 14, "telefono": "5199-4500", "web": "www.palermo.edu"}}, {"type": "Feature", "geometry": {"type": "Point", "coordinates": [-58.41473655845573, -34.59500524499742]}, "properties": {"id": 105, "nombre": "Universidad de Palermo", "unidad_aca": "Facultad de Ciencias Sociales", "sede": null, "direccion": "Bravo, Mario 1259", "barrio": "Recoleta", "comuna": 2, "telefono": "5199-4500", "web": "www.palermo.edu"}}, {"type": "Feature", "geometry": {"type": "Point", "coordinates": [-58.41584128541127, -34.59732397920401]}, "properties": {"id": 106, "nombre": "Universidad de Palermo", "unidad_aca": "Facultad de Ciencias Económicas y Empresariales - Facultad de Derecho - Facultad de Diseño y Comunicación - Rectorado", "sede": null, "direccion": "Bravo, Mario 1050", "barrio": "Palermo", "comuna": 14, "telefono": "5199-4500", "web": "www.palermo.edu"}}, {"type": "Feature", "geometry": {"type": "Point", "coordinates": [-58.37273212899387, -34.598791836487834]}, "properties": {"id": 107, "nombre": "Universidad del CEMA", "unidad_aca": "Departamento de Ingeniería - Departamento de Matemática e Informática", "sede": null, "direccion": "Reconquista 775", "barrio": "San Nicolas", "comuna": 1, "telefono": "6314-2269 (C)6314-3000", "web": "www.cema.edu.ar"}}, {"type": "Feature", "geometry": {"type": "Point", "coordinates": [-58.37236348410354, -34.59856644668209]}, "properties": {"id": 108, "nombre": "Universidad del CEMA", "unidad_aca": "Departamento de Ciencias Políticas - Departamento de Contabilidad - Departamento de Dirección de Empresas - Departamento de Economía - Departamento de Finanzas - Departamento de Investigaciones - Maestría en Dirección Bancaria y Agronegocios - Maest", "sede": null, "direccion": "Cordoba Av. 374", "barrio": "San Nicolas", "comuna": 1, "telefono": "6314-2269 (C)6314-3000", "web": "www.cema.edu.ar"}}, {"type": "Feature", "geometry": {"type": "Point", "coordinates": [-58.37064141777774, -34.61784196426518]}, "properties": {"id": 109, "nombre": "Universidad del Cine", "unidad_aca": "Facultad de Ciencias de la Comunicación - Facultad de Cinematografía - Rectorado", "sede": null, "direccion": "Giuffra, Jose M.,Dr. 330 / Giuffra, Jose M.,Dr. 353", "barrio": "San Telmo", "comuna": 1, "telefono": "(R)4300-1413/4300-1407", "web": "www.ucine.edu.ar"}}, {"type": "Feature", "geometry": {"type": "Point", "coordinates": [-58.386679476405035, -34.61115897872477]}, "properties": {"id": 110, "nombre": "Universidad del Museo Social Argentino", "unidad_aca": "Facultad de Ciencias Económicas de la Administración y de los Negocios", "sede": null, "direccion": "Alsina, Adolfo 1440", "barrio": "Monserrat", "comuna": 1, "telefono": "4383-6809/7018", "web": "www.umsa.edu.ar"}}, {"type": "Feature", "geometry": {"type": "Point", "coordinates": [-58.39131623720295, -34.60428494491914]}, "properties": {"id": 111, "nombre": "Universidad del Museo Social Argentino", "unidad_aca": "Facultad de Ciencias de la Interacción Social - Facultad de Ciencias de la Recuperación Humana - Facultad de Ciencias Jurídicas y Políticas - Facultad de Ciencias Psicológicas y Pedagógicas - Facultad de Lenguas Modernas - Rectorado", "sede": null, "direccion": "Corrientes Av. 1723", "barrio": "San Nicolas", "comuna": 1, "telefono": "4375-4601/4602/ 4372-5098/99", "web": "www.umsa.edu.ar"}}, {"type": "Feature", "geometry": {"type": "Point", "coordinates": [-58.388832813866124, -34.60538658734375]}, "properties": {"id": 112, "nombre": "Universidad del Museo Social Argentino", "unidad_aca": "Facultad de Artes y Ciencias de la Conservación", "sede": null, "direccion": "Sarmiento 1565", "barrio": "San Nicolas", "comuna": 1, "telefono": "5217-9401", "web": "www.umsa.edu.ar"}}, {"type": "Feature", "geometry": {"type": "Point", "coordinates": [-58.371851323868874, -34.61307232278972]}, "properties": {"id": 113, "nombre": "Universidad del Norte Santo Tomás de Aquino", "unidad_aca": "Facultad de Filosofía", "sede": null, "direccion": "Defensa 422", "barrio": "Monserrat", "comuna": 1, "telefono": "4345-4817", "web": null}}, {"type": "Feature", "geometry": {"type": "Point", "coordinates": [-58.39357554506804, -34.60087709883647]}, "properties": {"id": 114, "nombre": "Universidad del Salvador", "unidad_aca": "Rectorado", "sede": null, "direccion": "Viamonte 1856", "barrio": "Balvanera", "comuna": 3, "telefono": "4813-9630/1408", "web": "www.salvador.edu.ar"}}, {"type": "Feature", "geometry": {"type": "Point", "coordinates": [-58.392512020626704, -34.606864409993925]}, "properties": {"id": 115, "nombre": "Universidad del Salvador", "unidad_aca": "Facultad de Ciencias Jurídicas", "sede": null, "direccion": "Peron, Juan Domingo, Tte. General 1818", "barrio": "Balvanera", "comuna": 3, "telefono": "4372-5308", "web": "www.salvador.edu.ar"}}, {"type": "Feature", "geometry": {"type": "Point", "coordinates": [-58.39154423939391, -34.60010938573885]}, "properties": {"id": 116, "nombre": "Universidad del Salvador", "unidad_aca": "Instituto de Capacitación Contínua", "sede": null, "direccion": "Rodriguez Peña 770", "barrio": "San Nicolas", "comuna": 1, "telefono": "4813-0180", "web": "www.salvador.edu.ar"}}, {"type": "Feature", "geometry": {"type": "Point", "coordinates": [-58.391429263851535, -34.60117405595793]}, "properties": {"id": 117, "nombre": "Universidad del Salvador", "unidad_aca": "Facultad de Filosofía, Historia y Letras", "sede": null, "direccion": "Rodriguez Peña 670", "barrio": "San Nicolas", "comuna": 1, "telefono": "4375-2959", "web": "www.salvador.edu.ar"}}, {"type": "Feature", "geometry": {"type": "Point", "coordinates": [-58.386208133832895, -34.59695769295387]}, "properties": {"id": 118, "nombre": "Universidad del Salvador", "unidad_aca": "Facultad de Ciencias Económicas", "sede": null, "direccion": "Alvear, Marcelo T. De 1335 / Alvear, Marcelo T. De 1337", "barrio": "Retiro", "comuna": 1, "telefono": "4811-1279/4813-5622/3408", "web": "www.salvador.edu.ar"}}, {"type": "Feature", "geometry": {"type": "Point", "coordinates": [-58.39741010610676, -34.59632078122722]}, "properties": {"id": 119, "nombre": "Universidad del Salvador", "unidad_aca": "Escuela de Arte y Arquitectura", "sede": null, "direccion": "Junin 1063", "barrio": "Recoleta", "comuna": 2, "telefono": "4825-8622", "web": "www.salvador.edu.ar"}}, {"type": "Feature", "geometry": {"type": "Point", "coordinates": [-58.39290424336531, -34.599032087639074]}, "properties": {"id": 120, "nombre": "Universidad del Salvador", "unidad_aca": "Escuela de Estudios Orientales - Facultad de Ciencias de la Educación y de la Comunicación Social", "sede": null, "direccion": "Callao Av. 853", "barrio": "Recoleta", "comuna": 2, "telefono": "4811-2270", "web": "www.salvador.edu.ar"}}, {"type": "Feature", "geometry": {"type": "Point", "coordinates": [-58.400819614008306, -34.61090754912652]}, "properties": {"id": 121, "nombre": "Universidad del Salvador", "unidad_aca": "Facultad de Ciencias Sociales - Instituto de Prevención de la Drogadependencia", "sede": null, "direccion": "Yrigoyen, Hipolito 2441, 2º  piso", "barrio": "Balvanera", "comuna": 3, "telefono": "4952-1403/4951", "web": "www.salvador.edu.ar"}}, {"type": "Feature", "geometry": {"type": "Point", "coordinates": [-58.38585544710188, -34.59702371624977]}, "properties": {"id": 122, "nombre": "Universidad del Salvador", "unidad_aca": "Facultad de Ciencia y Tecnología - Facultad de Ciencias de la Administración - Facultad de Ciencias Económicas - Facultad de Psicología y Psicopedagogía", "sede": null, "direccion": "Alvear, Marcelo T. De 1312", "barrio": "Retiro", "comuna": 1, "telefono": "4813-3400/9639", "web": "www.salvador.edu.ar"}}, {"type": "Feature", "geometry": {"type": "Point", "coordinates": [-58.39329298769591, -34.60188508347873]}, "properties": {"id": 123, "nombre": "Universidad del Salvador", "unidad_aca": "Facultad de Medicina", "sede": null, "direccion": "Tucuman 1845", "barrio": "Balvanera", "comuna": 3, "telefono": "4811-8519/4813-2935", "web": "www.salvador.edu.ar"}}, {"type": "Feature", "geometry": {"type": "Point", "coordinates": [-58.3904248114106, -34.61435961434144]}, "properties": {"id": 124, "nombre": "Universidad Favaloro", "unidad_aca": "Facultad de Posgrado - Rectorado", "sede": null, "direccion": "Solis 453", "barrio": "Monserrat", "comuna": 1, "telefono": "4378-1169/1170/1161", "web": "www.favaloro.edu.ar"}}, {"type": "Feature", "geometry": {"type": "Point", "coordinates": [-58.391345570814856, -34.61387579530089]}, "properties": {"id": 125, "nombre": "Universidad Favaloro", "unidad_aca": "Facultad de Ciencias Médicas", "sede": null, "direccion": "Belgrano Av. 1782, 2º piso", "barrio": "Monserrat", "comuna": 1, "telefono": "4378-1237", "web": "www.favaloro.edu.ar"}}, {"type": "Feature", "geometry": {"type": "Point", "coordinates": [-58.390660962239096, -34.613663573899395]}, "properties": {"id": 126, "nombre": "Universidad Favaloro", "unidad_aca": "Facultad de Ingeniería y Ciencias Exactas y Naturales", "sede": null, "direccion": "Belgrano Av. 1723, piso 1º", "barrio": "Monserrat", "comuna": 1, "telefono": "4378-1117", "web": "www.favaloro.edu.ar"}}, {"type": "Feature", "geometry": {"type": "Point", "coordinates": [-58.385172493415695, -34.603233378612906]}, "properties": {"id": 127, "nombre": "Universidad Maimónides", "unidad_aca": "Rectorado", "sede": null, "direccion": "Talcahuano 456", "barrio": "San Nicolas", "comuna": 1, "telefono": "4373-1090/4905-1154 /4382-7510", "web": "www.maimonides.edu"}}, {"type": "Feature", "geometry": {"type": "Point", "coordinates": [-58.440996442445865, -34.6104516967029]}, "properties": {"id": 128, "nombre": "Universidad Maimónides", "unidad_aca": "Escuela de Comunicación Multimedial - Escuela Internacional de Negocios - Facultad de Ciencias de la Salud - Facultad de Humanidades", "sede": null, "direccion": "Hidalgo 775", "barrio": "Caballito", "comuna": 6, "telefono": "4905-1199", "web": "www.maimonides.edu"}}, {"type": "Feature", "geometry": {"type": "Point", "coordinates": [-58.38773519775892, -34.607181725515204]}, "properties": {"id": 129, "nombre": "Universidad Nacional de General San Martín", "unidad_aca": "Escuela de Política y Gobierno - Instituto de Altos Estudios Sociales", "sede": null, "direccion": "Parana 145", "barrio": "San Nicolas", "comuna": 1, "telefono": "4754-7300// 4372-3289", "web": "www.ungsm.edu.ar"}}, {"type": "Feature", "geometry": {"type": "Point", "coordinates": [-58.440760858122424, -34.551160048424535]}, "properties": {"id": 130, "nombre": "Universidad Nacional de General San Martín", "unidad_aca": "Instituto de Ciencias de la Rehabilitación y el Movimiento", "sede": null, "direccion": "Ramsay 2250", "barrio": "Belgrano", "comuna": 13, "telefono": "4576-0450/51/55", "web": "www.ungsm.edu.ar"}}, {"type": "Feature", "geometry": {"type": "Point", "coordinates": [-58.37738055056235, -34.608852793184056]}, "properties": {"id": 131, "nombre": "Universidad Nacional de la Matanza", "unidad_aca": "Escuela de Posgrado", "sede": null, "direccion": "De Mayo Av. 774, Pisos 1º,2º,3º", "barrio": "Monserrat", "comuna": 1, "telefono": "4342-8776", "web": "www.unlm.edu.ar"}}, {"type": "Feature", "geometry": {"type": "Point", "coordinates": [-58.39967221773816, -34.59485323081721]}, "properties": {"id": 132, "nombre": "Universidad Nacional de las Artes", "unidad_aca": "Carreras de Posgrado - Rectorado", "sede": null, "direccion": "Azcuenaga 1129", "barrio": "Recoleta", "comuna": 2, "telefono": "5777-1300", "web": "http://una.edu.ar/   http://una.edu.ar/posgrados/"}}, {"type": "Feature", "geometry": {"type": "Point", "coordinates": [-58.41990224442574, -34.610406956384544]}, "properties": {"id": 133, "nombre": "Universidad Nacional de las Artes", "unidad_aca": "Área Transdepartamental Carrera de Artes Multimediales - Departamento de Artes Audiovisuales", "sede": null, "direccion": "Salguero, Jeronimo 60", "barrio": "Almagro", "comuna": 5, "telefono": "4864-4141 // 4864-9194 // 4864-9049", "web": "http://una.edu.ar/   http://audiovisuales.una.edu.ar/"}}, {"type": "Feature", "geometry": {"type": "Point", "coordinates": [-58.39302593932101, -34.60790544991873]}, "properties": {"id": 134, "nombre": "Universidad Nacional de las Artes", "unidad_aca": "Área Transdepartamental Carrera de Crítica de Artes - Departamento de Artes Visuales - Posgrado en Artes Visuales", "sede": null, "direccion": "Mitre, Bartolome 1869", "barrio": "Balvanera", "comuna": 3, "telefono": "4371-7160 // 4371-5252 // 2056-3886", "web": "http://una.edu.ar/   http://criticadeartes.una.edu.ar/"}}, {"type": "Feature", "geometry": {"type": "Point", "coordinates": [-58.42271439814784, -34.5991207945045]}, "properties": {"id": 135, "nombre": "Universidad Nacional de las Artes", "unidad_aca": "Área Transdepartamental Carrera de Artes Multimediales - Departamento de Artes Audiovisuales", "sede": null, "direccion": "Rocamora 4141", "barrio": "Almagro", "comuna": 5, "telefono": "4864-4141 // 4864-9194 // 4864-9049", "web": "http://una.edu.ar/   http://audiovisuales.una.edu.ar/"}}, {"type": "Feature", "geometry": {"type": "Point", "coordinates": [-58.35567665680319, -34.6296036434598]}, "properties": {"id": 136, "nombre": "Universidad Nacional de las Artes", "unidad_aca": "Área Transdepartamental de Artes Multimediales", "sede": null, "direccion": "Don Pedro De Mendoza Av. 679", "barrio": "La Boca", "comuna": 4, "telefono": "4307-0624", "web": "http://una.edu.ar/   http://multimedia.una.edu.ar/"}}, {"type": "Feature", "geometry": {"type": "Point", "coordinates": [-58.41299258759126, -34.61488704677339]}, "properties": {"id": 137, "nombre": "Universidad Nacional de las Artes", "unidad_aca": "Área Transdepartamental de Folklore - Departamento de Artes del Movimiento", "sede": null, "direccion": "Sanchez De Loria 443 / Sanchez De Loria 447 / Sanchez De Loria 451", "barrio": "Almagro", "comuna": 5, "telefono": "4866-1675 // 4866-2168", "web": "http://una.edu.ar/   http://folklore.una.edu.ar/ - http://movimiento.una.edu.ar/"}}, {"type": "Feature", "geometry": {"type": "Point", "coordinates": [-58.40387329886293, -34.61563207442298]}, "properties": {"id": 138, "nombre": "Universidad Nacional de las Artes", "unidad_aca": "Departamento de Arte Dramáticas", "sede": null, "direccion": "Republica Bolivariana De Venezuela 2587", "barrio": "Balvanera", "comuna": 3, "telefono": "4804-9743  //  4804-2352", "web": "http://una.edu.ar/   http://dramaticas.una.edu.ar/"}}, {"type": "Feature", "geometry": {"type": "Point", "coordinates": [-58.36918915539033, -34.63654062623347]}, "properties": {"id": 139, "nombre": "Universidad Nacional de las Artes", "unidad_aca": "Departamento de Artes Visuales", "sede": null, "direccion": "Pinzon 1172", "barrio": "La Boca", "comuna": 4, "telefono": "2056-3440 // 2056-1658 // 2056-4473", "web": "http://una.edu.ar/   http://visuales.una.edu.ar/"}}, {"type": "Feature", "geometry": {"type": "Point", "coordinates": [-58.41174896734601, -34.58313449430455]}, "properties": {"id": 140, "nombre": "Universidad Nacional de las Artes", "unidad_aca": "Departamento de Arte Dramáticas", "sede": null, "direccion": "French 3614", "barrio": "Palermo", "comuna": 14, "telefono": "4804-9743  //  4804-2352", "web": "http://una.edu.ar/   http://dramaticas.una.edu.ar/"}}, {"type": "Feature", "geometry": {"type": "Point", "coordinates": [-58.401823936554884, -34.59921302182663]}, "properties": {"id": 141, "nombre": "Universidad Nacional de las Artes", "unidad_aca": "Departamento de Artes Musicales y Sonoras", "sede": null, "direccion": "Cordoba Av. 2445", "barrio": "Recoleta", "comuna": 2, "telefono": "4961-9618 // 4964-5593", "web": "http://una.edu.ar/   http://artesmusicales.org/web/"}}, {"type": "Feature", "geometry": {"type": "Point", "coordinates": [-58.36948557025943, -34.63692423429936]}, "properties": {"id": 142, "nombre": "Universidad Nacional de las Artes", "unidad_aca": "Departamento de Artes Visuales", "sede": null, "direccion": "Regimiento De Patricios Av. 740", "barrio": "La Boca", "comuna": 4, "telefono": "2056-3440 // 2056-1658 // 2056-4473", "web": "http://una.edu.ar/   http://visuales.una.edu.ar/"}}, {"type": "Feature", "geometry": {"type": "Point", "coordinates": [-58.372236819206, -34.627865028665305]}, "properties": {"id": 143, "nombre": "Universidad Nacional de las Artes", "unidad_aca": "Área Transdepartamental de Carrera de Formación Docente", "sede": null, "direccion": "Bolivar 1674", "barrio": "Barracas", "comuna": 4, "telefono": "4362-1699  //  4361-7692", "web": "http://una.edu.ar/   http://formaciondocente.una.edu.ar/"}}, {"type": "Feature", "geometry": {"type": "Point", "coordinates": [-58.406401220846064, -34.60007826331338]}, "properties": {"id": 144, "nombre": "Universidad Nacional de Luján", "unidad_aca": null, "sede": "Sede Ciudad de Buenos Aires", "direccion": "Ecuador 871", "barrio": "Balvanera", "comuna": 3, "telefono": "4962-7045/7026", "web": "www.unlu.edu.ar"}}, {"type": "Feature", "geometry": {"type": "Point", "coordinates": [-58.399859186858116, -34.609819167951656]}, "properties": {"id": 145, "nombre": "Universidad Nacional de Quilmes", "unidad_aca": "Instituto de Estudios sobre la Ciencia y la Tecnología", "sede": null, "direccion": "Rivadavia Av. 2358, 6º piso", "barrio": "Balvanera", "comuna": 3, "telefono": "4951-8221/2431", "web": "www.unq.edu.ar"}}, {"type": "Feature", "geometry": {"type": "Point", "coordinates": [-58.390378278983526, -34.5896186983859]}, "properties": {"id": 146, "nombre": "Universidad Notarial Argentina", "unidad_aca": "Derecho Civil y Comercial - Derecho Comparado y de Integración, Administrativo, Ambiental, Constitucional - Derecho Tributario y Notarial - Historia del Notariado - Inst. de la Minoridad y del Derecho de Menores - Sist. e Informática Notarial - Técnic", "sede": null, "direccion": "Guido 1841", "barrio": "Recoleta", "comuna": 2, "telefono": "4804-4233/7743", "web": null}}, {"type": "Feature", "geometry": {"type": "Point", "coordinates": [-58.420189685526, -34.598789673193544]}, "properties": {"id": 147, "nombre": "Universidad Tecnológica Nacional", "unidad_aca": null, "sede": "Facultad Regional Buenos Aires", "direccion": "Medrano Av. 951", "barrio": "Almagro", "comuna": 5, "telefono": "4862-1374/1881/4867-7521/7500", "web": "http://www.frba.utn.edu.ar/   www.frba.utn.edu.ar"}}, {"type": "Feature", "geometry": {"type": "Point", "coordinates": [-58.46695894463747, -34.58406397905905]}, "properties": {"id": 148, "nombre": "Universidad Tecnológica Nacional", "unidad_aca": "Instituto Nacional Superior del Profesorado Técnico", "sede": null, "direccion": "Triunvirato Av. 3174", "barrio": "Villa Ortuzar", "comuna": 15, "telefono": "4554-1667/4552-4176 /6027", "web": "http://www.frba.utn.edu.ar/   www.inspt.utn.edu.ar"}}, {"type": "Feature", "geometry": {"type": "Point", "coordinates": [-58.372789137884595, -34.6044728271877]}, "properties": {"id": 149, "nombre": "Universidad Tecnológica Nacional", "unidad_aca": "Rectorado", "sede": null, "direccion": "Sarmiento 440, piso 3º, 5º, 6º, 7º, 8º", "barrio": "San Nicolas", "comuna": 1, "telefono": "5371-5700/5600/5702/5704/5703", "web": "http://www.frba.utn.edu.ar/"}}, {"type": "Feature", "geometry": {"type": "Point", "coordinates": [-58.46811688466121, -34.65975945492542]}, "properties": {"id": 150, "nombre": "Universidad Tecnológica Nacional", "unidad_aca": null, "sede": "Campus Universitario", "direccion": "Mozart 2300", "barrio": "Villa Lugano", "comuna": 8, "telefono": "4638-8115/8838", "web": "http://www.frba.utn.edu.ar/"}}, {"type": "Feature", "geometry": {"type": "Point", "coordinates": [-58.42086694377014, -34.612853039073705]}, "properties": {"id": 151, "nombre": "Universidad Tecnológica Nacional", "unidad_aca": "Escuela de Posgrado", "sede": null, "direccion": "Castro Barros Av. 91", "barrio": "Almagro", "comuna": 5, "telefono": "4983-8882", "web": "http://www.frba.utn.edu.ar/"}}, {"type": "Feature", "geometry": {"type": "Point", "coordinates": [-58.44754485597146, -34.54816021717908]}, "properties": {"id": 152, "nombre": "Universidad Torcuato Di Tella", "unidad_aca": null, "sede": "Campus Alcorta", "direccion": "Saenz Valiente, Juan Pablo 1010", "barrio": "Belgrano", "comuna": 13, "telefono": "5169 7300", "web": "www.utdt.edu/"}}, {"type": "Feature", "geometry": {"type": "Point", "coordinates": [-58.44608361203776, -34.55469621231904]}, "properties": {"id": 153, "nombre": "Universidad Torcuato Di Tella", "unidad_aca": "Centro de Estudios de arquitectura Contemporánea - Departamento de Ciencia Política y Estudios Internacionales - Departamento de Economía - Departamento de Historia - Departamento de Matemática y Estadística - Escuela de Derecho - Escuela de Gobiern", "sede": null, "direccion": "Miñones 2159", "barrio": "Belgrano", "comuna": 13, "telefono": "4784-0080", "web": "www.utdt.edu/"}}]}