{"type": "FeatureCollection", "features": [{"type": "Feature", "geometry": {"type": "Point", "coordinates": [-58.5016808, -34.6725798]}, "properties": {"empresa": "Transportes Rio Grande Sacif", "horario": "1 AL 10 DE 10.00 A 14.00 HS.", "direccion": "MONTE 7320", "barrio": "Mataderos", "comuna": 9, "lineas": "23, 5, 8"}}, {"type": "Feature", "geometry": {"type": "Point", "coordinates": [-58.47423192, -34.65201484]}, "properties": {"empresa": "Nudo Sa", "horario": "1 AL 10 DE 10.00 A 14.00 HS.", "direccion": "MEDINA 1750", "barrio": "Parque Avellaneda", "comuna": 9, "lineas": "107, 50, 6"}}, {"type": "Feature", "geometry": {"type": "Point", "coordinates": [-58.47423192, -34.65201484]}, "properties": {"empresa": "Transportes Automotores 12 De Octubre Sa", "horario": "1 AL 10 DE 10.00 A 14.00 HS.", "direccion": "MEDINA 1750", "barrio": "Parque Avellaneda", "comuna": 9, "lineas": "7"}}, {"type": "Feature", "geometry": {"type": "Point", "coordinates": [-58.42432205, -34.65252113]}, "properties": {"empresa": "Transporte Larrazabal Cisa", "horario": "1 AL 10 DE 09.00 A 1600 HS", "direccion": "MOM 3081", "barrio": "Nueva Pompeya", "comuna": 4, "lineas": "117, 188, 20"}}, {"type": "Feature", "geometry": {"type": "Point", "coordinates": [-58.45063237, -34.64598846]}, "properties": {"empresa": "17 De Agosto  Sa", "horario": "1 AL 10 DE 08.00 A 12.00 HS", "direccion": "VARELA AV. 1628", "barrio": "Flores", "comuna": 7, "lineas": "26"}}, {"type": "Feature", "geometry": {"type": "Point", "coordinates": [-58.42432205, -34.65252113]}, "properties": {"empresa": "Dota Sa De Transporte Automotor", "horario": "1 AL 10 DE 09.00 A 1600 HS", "direccion": "MOM 3081", "barrio": "Nueva Pompeya", "comuna": 4, "lineas": "101, 28, 44"}}, {"type": "Feature", "geometry": {"type": "Point", "coordinates": [-58.42432205, -34.65252113]}, "properties": {"empresa": "Transportes Lope De Vega Saci", "horario": "1 AL 10 DE 09.00 A 1600 HS", "direccion": "MOM 3081", "barrio": "Nueva Pompeya", "comuna": 4, "lineas": "135, 56, 76, 91"}}, {"type": "Feature", "geometry": {"type": "Point", "coordinates": [-58.38829556, -34.64245382]}, "properties": {"empresa": "Micoomnibus Ciudad De Bs. As. Satci", "horario": "LU A VIER DE 09.00 A 10.00  Y DE 13.00 A 16 HS", "direccion": "LUZURIAGA 761", "barrio": "Barracas", "comuna": 4, "lineas": "59"}}, {"type": "Feature", "geometry": {"type": "Point", "coordinates": [-58.40897305, -34.60949541]}, "properties": {"empresa": "Transportes 68 Srl", "horario": "LUN A VIERNES DE 09.00 A 11.00 Y DE 14.00 A 16.00 HS", "direccion": "ECUADOR 82", "barrio": "Balvanera", "comuna": 3, "lineas": "68"}}, {"type": "Feature", "geometry": {"type": "Point", "coordinates": [-58.39643426, -34.62999611]}, "properties": {"empresa": "Transportes Automotores Riachuelo Sa", "horario": "1 AL 10 DE 10.00 A 14.00 HS.", "direccion": "PICHINCHA AV. 1765", "barrio": "Parque Patricios", "comuna": 4, "lineas": "100, 115, 134, 150"}}, {"type": "Feature", "geometry": {"type": "Point", "coordinates": [-58.45063237, -34.64598846]}, "properties": {"empresa": "Nuevos Rumbos Sa", "horario": "1 AL 10 DE 08.00 A 12.00 HS", "direccion": "VARELA AV. 1628", "barrio": "Flores", "comuna": 7, "lineas": "132"}}, {"type": "Feature", "geometry": {"type": "Point", "coordinates": [-58.47522824, -34.5406282]}, "properties": {"empresa": "Modo Sa", "horario": "1 AL 10 DE 10.00 A 12.00 Y DE 14.00 A 16.00 HS", "direccion": "SAN ISIDRO LABRADOR AV. 4812", "barrio": "Saavedra", "comuna": 12, "lineas": "151"}}, {"type": "Feature", "geometry": {"type": "Point", "coordinates": [-58.52765311, -34.63727391]}, "properties": {"empresa": "Transporte Larrazabal Cisa", "horario": "1 AL 10 DE 10.00 A 14.00 HS.", "direccion": "BYNON 6973", "barrio": "Liniers", "comuna": 9, "lineas": "161"}}, {"type": "Feature", "geometry": {"type": "Point", "coordinates": [-58.35578943, -34.63481974]}, "properties": {"empresa": "Expreso San Isidro Sa", "horario": "1 AL 10 DE 10.00 A 15.00 HS", "direccion": "BRIN, MINISTRO 1279", "barrio": "Boca", "comuna": 4, "lineas": "168"}}, {"type": "Feature", "geometry": {"type": "Point", "coordinates": [-58.4133397, -34.62712757]}, "properties": {"empresa": "Siglo Veintiuno Sa", "horario": "LUN A VIE DE 10.00 A 14.00 HS", "direccion": "LINIERS VIRREY 1350", "barrio": "Boedo", "comuna": 5, "lineas": "181"}}]}